[{"OBJECT_NAME":"ALOS (DAICHI)","OBJECT_ID":"2006-002A","EPOCH":"2026-04-14T20:30:33.671232","MEAN_MOTION":14.6991885,"ECCENTRICITY":0.0001562,"INCLINATION":98.1274,"RA_OF_ASC_NODE":60.6456,"ARG_OF_PERICENTER":113.0826,"MEAN_ANOMALY":247.0544,"EPHEMERIS_TYPE":0,"CLASSIFICATION_TYPE":"U","NORAD_CAT_ID":28931,"ELEMENT_SET_NO":999,"REV_AT_EPOCH":7879,"BSTAR":0.00011655,"MEAN_MOTION_DOT":6.48e-6,"MEAN_MOTION_DDOT":0},{"OBJECT_NAME":"H-2A R/B","OBJECT_ID":"2006-002B","EPOCH":"2026-04-14T19:49:02.491392","MEAN_MOTION":15.17233834,"ECCENTRICITY":0.0052622,"INCLINATION":98.2478,"RA_OF_ASC_NODE":254.9954,"ARG_OF_PERICENTER":118.4328,"MEAN_ANOMALY":242.222,"EPHEMERIS_TYPE":0,"CLASSIFICATION_TYPE":"U","NORAD_CAT_ID":28932,"ELEMENT_SET_NO":999,"REV_AT_EPOCH":9991,"BSTAR":0.00027624,"MEAN_MOTION_DOT":5.612e-5,"MEAN_MOTION_DDOT":0},{"OBJECT_NAME":"RESURS-DK 1","OBJECT_ID":"2006-021A","EPOCH":"2026-04-14T20:02:04.312032","MEAN_MOTION":15.12947475,"ECCENTRICITY":0.0002452,"INCLINATION":69.9298,"RA_OF_ASC_NODE":143.5136,"ARG_OF_PERICENTER":6.7217,"MEAN_ANOMALY":353.3982,"EPHEMERIS_TYPE":0,"CLASSIFICATION_TYPE":"U","NORAD_CAT_ID":29228,"ELEMENT_SET_NO":999,"REV_AT_EPOCH":9299,"BSTAR":6.5996e-5,"MEAN_MOTION_DOT":1.058e-5,"MEAN_MOTION_DDOT":0},{"OBJECT_NAME":"CZ-4B R/B","OBJECT_ID":"2006-046C","EPOCH":"2026-04-14T14:55:49.726848","MEAN_MOTION":15.172712,"ECCENTRICITY":0.0034161,"INCLINATION":97.5527,"RA_OF_ASC_NODE":149.4291,"ARG_OF_PERICENTER":141.0158,"MEAN_ANOMALY":219.3548,"EPHEMERIS_TYPE":0,"CLASSIFICATION_TYPE":"U","NORAD_CAT_ID":29507,"ELEMENT_SET_NO":999,"REV_AT_EPOCH":6549,"BSTAR":0.00012259,"MEAN_MOTION_DOT":2.406e-5,"MEAN_MOTION_DDOT":0},{"OBJECT_NAME":"CZ-2C R/B","OBJECT_ID":"2007-010B","EPOCH":"2026-04-14T19:06:50.472000","MEAN_MOTION":14.20259671,"ECCENTRICITY":0.005892,"INCLINATION":98.402,"RA_OF_ASC_NODE":216.2723,"ARG_OF_PERICENTER":188.102,"MEAN_ANOMALY":171.9211,"EPHEMERIS_TYPE":0,"CLASSIFICATION_TYPE":"U","NORAD_CAT_ID":31114,"ELEMENT_SET_NO":999,"REV_AT_EPOCH":98484,"BSTAR":4.5751e-5,"MEAN_MOTION_DOT":5.9e-7,"MEAN_MOTION_DDOT":0},{"OBJECT_NAME":"COSMO-SKYMED 1","OBJECT_ID":"2007-023A","EPOCH":"2026-04-14T20:00:28.325952","MEAN_MOTION":14.96798405,"ECCENTRICITY":0.0001425,"INCLINATION":97.888,"RA_OF_ASC_NODE":296.1632,"ARG_OF_PERICENTER":86.2604,"MEAN_ANOMALY":273.878,"EPHEMERIS_TYPE":0,"CLASSIFICATION_TYPE":"U","NORAD_CAT_ID":31598,"ELEMENT_SET_NO":999,"REV_AT_EPOCH":2031,"BSTAR":0.00011166,"MEAN_MOTION_DOT":1.218e-5,"MEAN_MOTION_DDOT":0},{"OBJECT_NAME":"COSMOS 2428","OBJECT_ID":"2007-029A","EPOCH":"2026-04-14T18:45:42.159744","MEAN_MOTION":14.12948195,"ECCENTRICITY":0.0009521,"INCLINATION":70.94,"RA_OF_ASC_NODE":127.5904,"ARG_OF_PERICENTER":238.6406,"MEAN_ANOMALY":121.3784,"EPHEMERIS_TYPE":0,"CLASSIFICATION_TYPE":"U","NORAD_CAT_ID":31792,"ELEMENT_SET_NO":999,"REV_AT_EPOCH":96919,"BSTAR":-3.9881e-5,"MEAN_MOTION_DOT":-1.22e-6,"MEAN_MOTION_DDOT":0},{"OBJECT_NAME":"SL-16 R/B","OBJECT_ID":"2007-029B","EPOCH":"2026-04-14T17:07:20.890272","MEAN_MOTION":14.14841426,"ECCENTRICITY":0.0002761,"INCLINATION":70.9728,"RA_OF_ASC_NODE":96.6587,"ARG_OF_PERICENTER":272.5278,"MEAN_ANOMALY":259.9563,"EPHEMERIS_TYPE":0,"CLASSIFICATION_TYPE":"U","NORAD_CAT_ID":31793,"ELEMENT_SET_NO":999,"REV_AT_EPOCH":97046,"BSTAR":-5.8098e-5,"MEAN_MOTION_DOT":-1.6e-6,"MEAN_MOTION_DDOT":0},{"OBJECT_NAME":"KORONAS-FOTON","OBJECT_ID":"2009-003A","EPOCH":"2026-04-14T19:15:08.529984","MEAN_MOTION":15.44340833,"ECCENTRICITY":0.0010761,"INCLINATION":82.4293,"RA_OF_ASC_NODE":238.3019,"ARG_OF_PERICENTER":30.8527,"MEAN_ANOMALY":329.3351,"EPHEMERIS_TYPE":0,"CLASSIFICATION_TYPE":"U","NORAD_CAT_ID":33504,"ELEMENT_SET_NO":999,"REV_AT_EPOCH":95131,"BSTAR":0.0001735,"MEAN_MOTION_DOT":8.051e-5,"MEAN_MOTION_DDOT":0},{"OBJECT_NAME":"CZ-2C R/B","OBJECT_ID":"2011-030B","EPOCH":"2026-04-14T21:16:26.288832","MEAN_MOTION":14.81338731,"ECCENTRICITY":0.0051215,"INCLINATION":97.8602,"RA_OF_ASC_NODE":61.4434,"ARG_OF_PERICENTER":231.6044,"MEAN_ANOMALY":189.95,"EPHEMERIS_TYPE":0,"CLASSIFICATION_TYPE":"U","NORAD_CAT_ID":37731,"ELEMENT_SET_NO":999,"REV_AT_EPOCH":79545,"BSTAR":7.7099e-5,"MEAN_MOTION_DOT":5.6e-6,"MEAN_MOTION_DDOT":0},{"OBJECT_NAME":"H-2A R/B","OBJECT_ID":"2012-025E","EPOCH":"2026-04-14T20:43:59.969856","MEAN_MOTION":14.95402516,"ECCENTRICITY":0.00439,"INCLINATION":98.4788,"RA_OF_ASC_NODE":74.8277,"ARG_OF_PERICENTER":192.4524,"MEAN_ANOMALY":167.5614,"EPHEMERIS_TYPE":0,"CLASSIFICATION_TYPE":"U","NORAD_CAT_ID":38341,"ELEMENT_SET_NO":999,"REV_AT_EPOCH":75362,"BSTAR":0.00017519,"MEAN_MOTION_DOT":1.902e-5,"MEAN_MOTION_DDOT":0},{"OBJECT_NAME":"SHIJIAN-16 (SJ-16)","OBJECT_ID":"2013-057A","EPOCH":"2026-04-14T19:52:53.213088","MEAN_MOTION":14.92456595,"ECCENTRICITY":0.0015716,"INCLINATION":74.9705,"RA_OF_ASC_NODE":116.6692,"ARG_OF_PERICENTER":19.452,"MEAN_ANOMALY":340.7265,"EPHEMERIS_TYPE":0,"CLASSIFICATION_TYPE":"U","NORAD_CAT_ID":39358,"ELEMENT_SET_NO":999,"REV_AT_EPOCH":67689,"BSTAR":1.2065e-5,"MEAN_MOTION_DOT":9.4e-7,"MEAN_MOTION_DDOT":0},{"OBJECT_NAME":"SL-4 R/B","OBJECT_ID":"2014-021B","EPOCH":"2026-04-14T12:26:13.147872","MEAN_MOTION":15.40450973,"ECCENTRICITY":0.0093313,"INCLINATION":51.6059,"RA_OF_ASC_NODE":162.3211,"ARG_OF_PERICENTER":233.9107,"MEAN_ANOMALY":125.321,"EPHEMERIS_TYPE":0,"CLASSIFICATION_TYPE":"U","NORAD_CAT_ID":39679,"ELEMENT_SET_NO":999,"REV_AT_EPOCH":66179,"BSTAR":0.00016321,"MEAN_MOTION_DOT":7.375e-5,"MEAN_MOTION_DDOT":0},{"OBJECT_NAME":"ALOS-2","OBJECT_ID":"2014-029A","EPOCH":"2026-04-14T20:02:04.668864","MEAN_MOTION":14.79477568,"ECCENTRICITY":0.0001814,"INCLINATION":97.9193,"RA_OF_ASC_NODE":202.9065,"ARG_OF_PERICENTER":89.1435,"MEAN_ANOMALY":270.9984,"EPHEMERIS_TYPE":0,"CLASSIFICATION_TYPE":"U","NORAD_CAT_ID":39766,"ELEMENT_SET_NO":999,"REV_AT_EPOCH":64221,"BSTAR":5.5339e-5,"MEAN_MOTION_DOT":3.62e-6,"MEAN_MOTION_DDOT":0},{"OBJECT_NAME":"YAOGAN-29","OBJECT_ID":"2015-069A","EPOCH":"2026-04-14T19:46:44.030208","MEAN_MOTION":14.83032156,"ECCENTRICITY":9.21e-5,"INCLINATION":98.0095,"RA_OF_ASC_NODE":133.3422,"ARG_OF_PERICENTER":159.1681,"MEAN_ANOMALY":200.957,"EPHEMERIS_TYPE":0,"CLASSIFICATION_TYPE":"U","NORAD_CAT_ID":41038,"ELEMENT_SET_NO":999,"REV_AT_EPOCH":56123,"BSTAR":2.8479e-6,"MEAN_MOTION_DOT":-3.1e-7,"MEAN_MOTION_DDOT":0},{"OBJECT_NAME":"ASTRO-H (HITOMI)","OBJECT_ID":"2016-012A","EPOCH":"2026-04-14T07:50:33.620928","MEAN_MOTION":15.1022459,"ECCENTRICITY":0.00095697,"INCLINATION":30.9979,"RA_OF_ASC_NODE":126.5292,"ARG_OF_PERICENTER":329.5257,"MEAN_ANOMALY":30.4825,"EPHEMERIS_TYPE":0,"CLASSIFICATION_TYPE":"U","NORAD_CAT_ID":41337,"ELEMENT_SET_NO":999,"REV_AT_EPOCH":55762,"BSTAR":9.6073251e-5,"MEAN_MOTION_DOT":1.706e-5,"MEAN_MOTION_DDOT":0},{"OBJECT_NAME":"HXMT (HUIYAN)","OBJECT_ID":"2017-034A","EPOCH":"2026-04-14T15:29:34.658592","MEAN_MOTION":15.1792479,"ECCENTRICITY":0.0030369,"INCLINATION":43.0133,"RA_OF_ASC_NODE":176.6999,"ARG_OF_PERICENTER":102.5734,"MEAN_ANOMALY":257.8514,"EPHEMERIS_TYPE":0,"CLASSIFICATION_TYPE":"U","NORAD_CAT_ID":42758,"ELEMENT_SET_NO":999,"REV_AT_EPOCH":48800,"BSTAR":0.00012444,"MEAN_MOTION_DOT":2.354e-5,"MEAN_MOTION_DDOT":0}]
