ALOS (DAICHI)           
1 28931U 06002A   26104.85455638  .00000648  00000+0  11655-3 0  9996
2 28931  98.1274  60.6456 0001562 113.0826 247.0544 14.69918850 78796
H-2A R/B                
1 28932U 06002B   26104.82572328  .00005612  00000+0  27624-3 0  9999
2 28932  98.2478 254.9954 0052622 118.4328 242.2220 15.17233834 99915
RESURS-DK 1             
1 29228U 06021A   26104.83477213  .00001058  00000+0  65996-4 0  9992
2 29228  69.9298 143.5136 0002452   6.7217 353.3982 15.12947475 92994
CZ-4B R/B               
1 29507U 06046C   26104.62210332  .00002406  00000+0  12259-3 0  9994
2 29507  97.5527 149.4291 0034161 141.0158 219.3548 15.17271200 65497
CZ-2C R/B               
1 31114U 07010B   26104.79641750  .00000059  00000+0  45751-4 0  9999
2 31114  98.4020 216.2723 0058920 188.1020 171.9211 14.20259671984844
COSMO-SKYMED 1          
1 31598U 07023A   26104.83366118  .00001218  00000+0  11166-3 0  9996
2 31598  97.8880 296.1632 0001425  86.2604 273.8780 14.96798405 20319
COSMOS 2428             
1 31792U 07029A   26104.78173796 -.00000122  00000+0 -39881-4 0  9990
2 31792  70.9400 127.5904 0009521 238.6406 121.3784 14.12948195969192
SL-16 R/B               
1 31793U 07029B   26104.71343623 -.00000160  00000+0 -58098-4 0  9995
2 31793  70.9728  96.6587 0002761 272.5278 259.9563 14.14841426970468
KORONAS-FOTON           
1 33504U 09003A   26104.80218206  .00008051  00000+0  17350-3 0  9999
2 33504  82.4293 238.3019 0010761  30.8527 329.3351 15.44340833951311
CZ-2C R/B               
1 37731U 11030B   26104.88641538  .00000560  00000+0  77099-4 0  9998
2 37731  97.8602  61.4434 0051215 231.6044 189.9500 14.81338731795452
H-2A R/B                
1 38341U 12025E   26104.86388854  .00001902  00000+0  17519-3 0  9999
2 38341  98.4788  74.8277 0043900 192.4524 167.5614 14.95402516753623
SHIJIAN-16 (SJ-16)      
1 39358U 13057A   26104.82839367  .00000094  00000+0  12065-4 0  9993
2 39358  74.9705 116.6692 0015716  19.4520 340.7265 14.92456595676897
SL-4 R/B                
1 39679U 14021B   26104.51820773  .00007375  00000+0  16321-3 0  9995
2 39679  51.6059 162.3211 0093313 233.9107 125.3210 15.40450973661793
ALOS-2                  
1 39766U 14029A   26104.83477626  .00000362  00000+0  55339-4 0  9992
2 39766  97.9193 202.9065 0001814  89.1435 270.9984 14.79477568642211
YAOGAN-29               
1 41038U 15069A   26104.82412072 -.00000031  00000+0  28479-5 0  9995
2 41038  98.0095 133.3422 0000921 159.1681 200.9570 14.83032156561233
ASTRO-H (HITOMI)        
1 41337U 16012A   26104.32677802  .00001706  00000+0  96073-4 0  9998
2 41337  30.9979 126.5292 0009569 329.5257  30.4825 15.10224590557622
HXMT (HUIYAN)           
1 42758U 17034A   26104.64554003  .00002354  00000+0  12444-3 0  9992
2 42758  43.0133 176.6999 0030369 102.5734 257.8514 15.17924790488009
